STARLINK-36354          
1 67800U 26032D   26060.80640754  .00038180  00000+0  19912-3 0  9996
2 67800  97.2849 246.9246 0002000  82.9625 277.1870 15.80821940  3541
STARLINK-36773          
1 67801U 26032E   26060.81115921  .00198192  00000+0  12957-2 0  9992
2 67801  97.2845 246.9169 0001500 102.0933 258.0500 15.75248975  3545
STARLINK-36739          
1 67802U 26032F   26060.80363122  .00258934  00000+0  13077-2 0  9995
2 67802  97.2841 246.9267 0002051  54.2087 305.9371 15.80901544  3543
STARLINK-36768          
1 67803U 26032G   26060.80548347 -.00828734  00000+0 -54706-2 0  9997
2 67803  97.2850 246.9231 0001315  75.4796 284.6616 15.77717097  3548
STARLINK-36792          
1 67804U 26032H   26060.80763780  .00130126  00000+0  85806-3 0  9993
2 67804  97.2844 246.9211 0002131  58.1814 301.9659 15.75242906  3546
STARLINK-36782          
1 67805U 26032J   26060.80190379  .00251576  00000+0  12710-2 0  9998
2 67805  97.2837 246.9286 0001442  86.7963 273.3470 15.80913472  3549
STARLINK-36389          
1 67806U 26032K   26060.80073348  .00220702  00000+0  11197-2 0  9990
2 67806  97.2834 246.9299 0001427  75.2612 284.8815 15.80900671  3545
STARLINK-36382          
1 67807U 26032L   26060.79976889  .00229469  00000+0  11629-2 0  9990
2 67807  97.2831 246.9306 0001136  80.3962 279.7434 15.80902233  3540
STARLINK-36811          
1 67808U 26032M   26060.79859403  .00083147  00000+0  42997-3 0  9997
2 67808  97.2831 246.9336 0000911  88.8075 271.3298 15.80853270  3544
STARLINK-36795          
1 67809U 26032N   26060.80128037  .00074556  00000+0  49602-3 0  9996
2 67809  97.2836 246.9290 0001645  99.4263 260.7188 15.75206081  3547
STARLINK-36807          
1 67810U 26032P   26060.79653517  .00148173  00000+0  75938-3 0  9990
2 67810  97.2827 246.9353 0001495  80.0103 280.1334 15.80869352  3542
STARLINK-36733          
1 67811U 26032Q   26060.79528931  .00148988  00000+0  76318-3 0  9999
2 67811  97.2823 246.9367 0000909  78.5888 281.5482 15.80878385  3540
