CCSDS_OMM_VERS = 2.0
CREATION_DATE  = 
ORIGINATOR     = 

OBJECT_NAME    = STARLINK-36354
OBJECT_ID      = 2026-032D
CENTER_NAME    = EARTH
REF_FRAME      = TEME
TIME_SYSTEM    = UTC
MEAN_ELEMENT_THEORY = SGP/SGP4

EPOCH          = 2026-03-01T19:21:13.611456
MEAN_MOTION    = 15.80821940
ECCENTRICITY   = .0002
INCLINATION    = 97.2849
RA_OF_ASC_NODE = 246.9246
ARG_OF_PERICENTER = 82.9625
MEAN_ANOMALY   = 277.1870

EPHEMERIS_TYPE = 0
CLASSIFICATION_TYPE = U
NORAD_CAT_ID   = 67800
ELEMENT_SET_NO = 999
REV_AT_EPOCH   = 354
BSTAR          = .19912E-3
MEAN_MOTION_DOT = .3818E-3
MEAN_MOTION_DDOT = 0

CCSDS_OMM_VERS = 2.0
CREATION_DATE  = 
ORIGINATOR     = 

OBJECT_NAME    = STARLINK-36773
OBJECT_ID      = 2026-032E
CENTER_NAME    = EARTH
REF_FRAME      = TEME
TIME_SYSTEM    = UTC
MEAN_ELEMENT_THEORY = SGP/SGP4

EPOCH          = 2026-03-01T19:28:04.155744
MEAN_MOTION    = 15.75248975
ECCENTRICITY   = .00015
INCLINATION    = 97.2845
RA_OF_ASC_NODE = 246.9169
ARG_OF_PERICENTER = 102.0933
MEAN_ANOMALY   = 258.0500

EPHEMERIS_TYPE = 0
CLASSIFICATION_TYPE = U
NORAD_CAT_ID   = 67801
ELEMENT_SET_NO = 999
REV_AT_EPOCH   = 354
BSTAR          = .12957E-2
MEAN_MOTION_DOT = .198192E-2
MEAN_MOTION_DDOT = 0

CCSDS_OMM_VERS = 2.0
CREATION_DATE  = 
ORIGINATOR     = 

OBJECT_NAME    = STARLINK-36739
OBJECT_ID      = 2026-032F
CENTER_NAME    = EARTH
REF_FRAME      = TEME
TIME_SYSTEM    = UTC
MEAN_ELEMENT_THEORY = SGP/SGP4

EPOCH          = 2026-03-01T19:17:13.737408
MEAN_MOTION    = 15.80901544
ECCENTRICITY   = .0002051
INCLINATION    = 97.2841
RA_OF_ASC_NODE = 246.9267
ARG_OF_PERICENTER = 54.2087
MEAN_ANOMALY   = 305.9371

EPHEMERIS_TYPE = 0
CLASSIFICATION_TYPE = U
NORAD_CAT_ID   = 67802
ELEMENT_SET_NO = 999
REV_AT_EPOCH   = 354
BSTAR          = .13077E-2
MEAN_MOTION_DOT = .258934E-2
MEAN_MOTION_DDOT = 0

CCSDS_OMM_VERS = 2.0
CREATION_DATE  = 
ORIGINATOR     = 

OBJECT_NAME    = STARLINK-36768
OBJECT_ID      = 2026-032G
CENTER_NAME    = EARTH
REF_FRAME      = TEME
TIME_SYSTEM    = UTC
MEAN_ELEMENT_THEORY = SGP/SGP4

EPOCH          = 2026-03-01T19:19:53.771808
MEAN_MOTION    = 15.77717097
ECCENTRICITY   = .0001315
INCLINATION    = 97.2850
RA_OF_ASC_NODE = 246.9231
ARG_OF_PERICENTER = 75.4796
MEAN_ANOMALY   = 284.6616

EPHEMERIS_TYPE = 0
CLASSIFICATION_TYPE = U
NORAD_CAT_ID   = 67803
ELEMENT_SET_NO = 999
REV_AT_EPOCH   = 354
BSTAR          = -.54706E-2
MEAN_MOTION_DOT = -.828734E-2
MEAN_MOTION_DDOT = 0

CCSDS_OMM_VERS = 2.0
CREATION_DATE  = 
ORIGINATOR     = 

OBJECT_NAME    = STARLINK-36792
OBJECT_ID      = 2026-032H
CENTER_NAME    = EARTH
REF_FRAME      = TEME
TIME_SYSTEM    = UTC
MEAN_ELEMENT_THEORY = SGP/SGP4

EPOCH          = 2026-03-01T19:22:59.905920
MEAN_MOTION    = 15.75242906
ECCENTRICITY   = .0002131
INCLINATION    = 97.2844
RA_OF_ASC_NODE = 246.9211
ARG_OF_PERICENTER = 58.1814
MEAN_ANOMALY   = 301.9659

EPHEMERIS_TYPE = 0
CLASSIFICATION_TYPE = U
NORAD_CAT_ID   = 67804
ELEMENT_SET_NO = 999
REV_AT_EPOCH   = 354
BSTAR          = .85806E-3
MEAN_MOTION_DOT = .130126E-2
MEAN_MOTION_DDOT = 0

CCSDS_OMM_VERS = 2.0
CREATION_DATE  = 
ORIGINATOR     = 

OBJECT_NAME    = STARLINK-36782
OBJECT_ID      = 2026-032J
CENTER_NAME    = EARTH
REF_FRAME      = TEME
TIME_SYSTEM    = UTC
MEAN_ELEMENT_THEORY = SGP/SGP4

EPOCH          = 2026-03-01T19:14:44.487456
MEAN_MOTION    = 15.80913472
ECCENTRICITY   = .0001442
INCLINATION    = 97.2837
RA_OF_ASC_NODE = 246.9286
ARG_OF_PERICENTER = 86.7963
MEAN_ANOMALY   = 273.3470

EPHEMERIS_TYPE = 0
CLASSIFICATION_TYPE = U
NORAD_CAT_ID   = 67805
ELEMENT_SET_NO = 999
REV_AT_EPOCH   = 354
BSTAR          = .1271E-2
MEAN_MOTION_DOT = .251576E-2
MEAN_MOTION_DDOT = 0

CCSDS_OMM_VERS = 2.0
CREATION_DATE  = 
ORIGINATOR     = 

OBJECT_NAME    = STARLINK-36389
OBJECT_ID      = 2026-032K
CENTER_NAME    = EARTH
REF_FRAME      = TEME
TIME_SYSTEM    = UTC
MEAN_ELEMENT_THEORY = SGP/SGP4

EPOCH          = 2026-03-01T19:13:03.372672
MEAN_MOTION    = 15.80900671
ECCENTRICITY   = .0001427
INCLINATION    = 97.2834
RA_OF_ASC_NODE = 246.9299
ARG_OF_PERICENTER = 75.2612
MEAN_ANOMALY   = 284.8815

EPHEMERIS_TYPE = 0
CLASSIFICATION_TYPE = U
NORAD_CAT_ID   = 67806
ELEMENT_SET_NO = 999
REV_AT_EPOCH   = 354
BSTAR          = .11197E-2
MEAN_MOTION_DOT = .220702E-2
MEAN_MOTION_DDOT = 0

CCSDS_OMM_VERS = 2.0
CREATION_DATE  = 
ORIGINATOR     = 

OBJECT_NAME    = STARLINK-36382
OBJECT_ID      = 2026-032L
CENTER_NAME    = EARTH
REF_FRAME      = TEME
TIME_SYSTEM    = UTC
MEAN_ELEMENT_THEORY = SGP/SGP4

EPOCH          = 2026-03-01T19:11:40.032096
MEAN_MOTION    = 15.80902233
ECCENTRICITY   = .0001136
INCLINATION    = 97.2831
RA_OF_ASC_NODE = 246.9306
ARG_OF_PERICENTER = 80.3962
MEAN_ANOMALY   = 279.7434

EPHEMERIS_TYPE = 0
CLASSIFICATION_TYPE = U
NORAD_CAT_ID   = 67807
ELEMENT_SET_NO = 999
REV_AT_EPOCH   = 354
BSTAR          = .11629E-2
MEAN_MOTION_DOT = .229469E-2
MEAN_MOTION_DDOT = 0

CCSDS_OMM_VERS = 2.0
CREATION_DATE  = 
ORIGINATOR     = 

OBJECT_NAME    = STARLINK-36811
OBJECT_ID      = 2026-032M
CENTER_NAME    = EARTH
REF_FRAME      = TEME
TIME_SYSTEM    = UTC
MEAN_ELEMENT_THEORY = SGP/SGP4

EPOCH          = 2026-03-01T19:09:58.524192
MEAN_MOTION    = 15.80853270
ECCENTRICITY   = .0000911
INCLINATION    = 97.2831
RA_OF_ASC_NODE = 246.9336
ARG_OF_PERICENTER = 88.8075
MEAN_ANOMALY   = 271.3298

EPHEMERIS_TYPE = 0
CLASSIFICATION_TYPE = U
NORAD_CAT_ID   = 67808
ELEMENT_SET_NO = 999
REV_AT_EPOCH   = 354
BSTAR          = .42997E-3
MEAN_MOTION_DOT = .83147E-3
MEAN_MOTION_DDOT = 0

CCSDS_OMM_VERS = 2.0
CREATION_DATE  = 
ORIGINATOR     = 

OBJECT_NAME    = STARLINK-36795
OBJECT_ID      = 2026-032N
CENTER_NAME    = EARTH
REF_FRAME      = TEME
TIME_SYSTEM    = UTC
MEAN_ELEMENT_THEORY = SGP/SGP4

EPOCH          = 2026-03-01T19:13:50.623968
MEAN_MOTION    = 15.75206081
ECCENTRICITY   = .0001645
INCLINATION    = 97.2836
RA_OF_ASC_NODE = 246.9290
ARG_OF_PERICENTER = 99.4263
MEAN_ANOMALY   = 260.7188

EPHEMERIS_TYPE = 0
CLASSIFICATION_TYPE = U
NORAD_CAT_ID   = 67809
ELEMENT_SET_NO = 999
REV_AT_EPOCH   = 354
BSTAR          = .49602E-3
MEAN_MOTION_DOT = .74556E-3
MEAN_MOTION_DDOT = 0

CCSDS_OMM_VERS = 2.0
CREATION_DATE  = 
ORIGINATOR     = 

OBJECT_NAME    = STARLINK-36807
OBJECT_ID      = 2026-032P
CENTER_NAME    = EARTH
REF_FRAME      = TEME
TIME_SYSTEM    = UTC
MEAN_ELEMENT_THEORY = SGP/SGP4

EPOCH          = 2026-03-01T19:07:00.638688
MEAN_MOTION    = 15.80869352
ECCENTRICITY   = .0001495
INCLINATION    = 97.2827
RA_OF_ASC_NODE = 246.9353
ARG_OF_PERICENTER = 80.0103
MEAN_ANOMALY   = 280.1334

EPHEMERIS_TYPE = 0
CLASSIFICATION_TYPE = U
NORAD_CAT_ID   = 67810
ELEMENT_SET_NO = 999
REV_AT_EPOCH   = 354
BSTAR          = .75938E-3
MEAN_MOTION_DOT = .148173E-2
MEAN_MOTION_DDOT = 0

CCSDS_OMM_VERS = 2.0
CREATION_DATE  = 
ORIGINATOR     = 

OBJECT_NAME    = STARLINK-36733
OBJECT_ID      = 2026-032Q
CENTER_NAME    = EARTH
REF_FRAME      = TEME
TIME_SYSTEM    = UTC
MEAN_ELEMENT_THEORY = SGP/SGP4

EPOCH          = 2026-03-01T19:05:12.996384
MEAN_MOTION    = 15.80878385
ECCENTRICITY   = .0000909
INCLINATION    = 97.2823
RA_OF_ASC_NODE = 246.9367
ARG_OF_PERICENTER = 78.5888
MEAN_ANOMALY   = 281.5482

EPHEMERIS_TYPE = 0
CLASSIFICATION_TYPE = U
NORAD_CAT_ID   = 67811
ELEMENT_SET_NO = 999
REV_AT_EPOCH   = 354
BSTAR          = .76318E-3
MEAN_MOTION_DOT = .148988E-2
MEAN_MOTION_DDOT = 0

